{
  "type": "FeatureCollection",
  "features": [
    {
      "type": "Feature",
      "properties": {
        "norad_id": 34761,
        "name": "COSMOS 2251 DEB",
        "group": "cosmos-2251-debris",
        "lat": -65.4283629478889,
        "lon": -134.5236371140067,
        "alt_km": 794.3900561475748,
        "timestamp": "2025-12-10T14:53:37.483020+00:00",
        "meta_object_name": "COSMOS 2251 DEB",
        "meta_object_id": "1993-036AAF",
        "meta_epoch": "2025-12-09T19:21:52.489728",
        "meta_mean_motion": 14.38033811,
        "meta_eccentricity": 0.00362813,
        "meta_inclination": 74.0294,
        "meta_ra_of_asc_node": 8.1962,
        "meta_arg_of_pericenter": 43.2108,
        "meta_mean_anomaly": 317.1882,
        "meta_ephemeris_type": 0,
        "meta_classification_type": "U",
        "meta_norad_cat_id": 34761,
        "meta_element_set_no": 999,
        "meta_rev_at_epoch": 87607,
        "meta_bstar": 0.00094718256,
        "meta_mean_motion_dot": 2.864e-05,
        "meta_mean_motion_ddot": 0,
        "tle_line1": "1 34761U 93036AAF 25343.80685752  .00002864  00000+0  94718-3 0  9991",
        "tle_line2": "2 34761  74.0294   8.1962 0036281  43.2108 317.1882 14.38033811876073"
      },
      "geometry": {
        "type": "Point",
        "coordinates": [
          -134.5236371140067,
          -65.4283629478889
        ]
      }
    },
    {
      "type": "Feature",
      "properties": {
        "norad_id": 34784,
        "name": "COSMOS 2251 DEB",
        "group": "cosmos-2251-debris",
        "lat": -48.301951526604704,
        "lon": -50.365247009811576,
        "alt_km": 731.7383551044104,
        "timestamp": "2025-12-10T14:53:37.483030+00:00",
        "meta_object_name": "COSMOS 2251 DEB",
        "meta_object_id": "1993-036AAM",
        "meta_epoch": "2025-12-09T09:32:34.369728",
        "meta_mean_motion": 14.60755822,
        "meta_eccentricity": 0.00495196,
        "meta_inclination": 74.0076,
        "meta_ra_of_asc_node": 330.7528,
        "meta_arg_of_pericenter": 141.0713,
        "meta_mean_anomaly": 219.4036,
        "meta_ephemeris_type": 0,
        "meta_classification_type": "U",
        "meta_norad_cat_id": 34784,
        "meta_element_set_no": 999,
        "meta_rev_at_epoch": 88486,
        "meta_bstar": 0.00077015634,
        "meta_mean_motion_dot": 3.794e-05,
        "meta_mean_motion_ddot": 0,
        "tle_line1": "1 34784U 93036AAM 25343.39762002  .00003794  00000+0  77016-3 0  9999",
        "tle_line2": "2 34784  74.0076 330.7528 0049519 141.0713 219.4036 14.60755822884864"
      },
      "geometry": {
        "type": "Point",
        "coordinates": [
          -50.365247009811576,
          -48.301951526604704
        ]
      }
    },
    {
      "type": "Feature",
      "properties": {
        "norad_id": 34790,
        "name": "COSMOS 2251 DEB",
        "group": "cosmos-2251-debris",
        "lat": -8.304254158171092,
        "lon": -114.86877073055012,
        "alt_km": 759.1823904288503,
        "timestamp": "2025-12-10T14:53:37.483039+00:00",
        "meta_object_name": "COSMOS 2251 DEB",
        "meta_object_id": "1993-036AAT",
        "meta_epoch": "2025-12-09T04:18:49.662144",
        "meta_mean_motion": 14.24610447,
        "meta_eccentricity": 0.01007438,
        "meta_inclination": 74.0552,
        "meta_ra_of_asc_node": 250.1156,
        "meta_arg_of_pericenter": 312.5017,
        "meta_mean_anomaly": 211.6898,
        "meta_ephemeris_type": 0,
        "meta_classification_type": "U",
        "meta_norad_cat_id": 34790,
        "meta_element_set_no": 999,
        "meta_rev_at_epoch": 86522,
        "meta_bstar": 0.001032802,
        "meta_mean_motion_dot": 2.504e-05,
        "meta_mean_motion_ddot": 0,
        "tle_line1": "1 34790U 93036AAT 25343.17974146  .00002504  00000+0  10328-2 0  9996",
        "tle_line2": "2 34790  74.0552 250.1156 0100743 312.5017 211.6898 14.24610447865223"
      },
      "geometry": {
        "type": "Point",
        "coordinates": [
          -114.86877073055012,
          -8.304254158171092
        ]
      }
    },
    {
      "type": "Feature",
      "properties": {
        "norad_id": 34792,
        "name": "COSMOS 2251 DEB",
        "group": "cosmos-2251-debris",
        "lat": 56.61768610676391,
        "lon": -160.48666021421272,
        "alt_km": 708.5002548095626,
        "timestamp": "2025-12-10T14:53:37.483049+00:00",
        "meta_object_name": "COSMOS 2251 DEB",
        "meta_object_id": "1993-036AAV",
        "meta_epoch": "2025-12-09T12:22:02.661312",
        "meta_mean_motion": 14.55910931,
        "meta_eccentricity": 0.00125292,
        "meta_inclination": 74.0177,
        "meta_ra_of_asc_node": 175.8284,
        "meta_arg_of_pericenter": 269.6711,
        "meta_mean_anomaly": 119.962,
        "meta_ephemeris_type": 0,
        "meta_classification_type": "U",
        "meta_norad_cat_id": 34792,
        "meta_element_set_no": 999,
        "meta_rev_at_epoch": 87603,
        "meta_bstar": 0.0013597617,
        "meta_mean_motion_dot": 5.954e-05,
        "meta_mean_motion_ddot": 0,
        "tle_line1": "1 34792U 93036AAV 25343.51530858  .00005954  00000+0  13598-2 0  9998",
        "tle_line2": "2 34792  74.0177 175.8284 0012529 269.6711 119.9620 14.55910931876039"
      },
      "geometry": {
        "type": "Point",
        "coordinates": [
          -160.48666021421272,
          56.61768610676391
        ]
      }
    },
    {
      "type": "Feature",
      "properties": {
        "norad_id": 34793,
        "name": "COSMOS 2251 DEB",
        "group": "cosmos-2251-debris",
        "lat": -28.65265252825285,
        "lon": -114.73624219291187,
        "alt_km": 761.3549939398999,
        "timestamp": "2025-12-10T14:53:37.483058+00:00",
        "meta_object_name": "COSMOS 2251 DEB",
        "meta_object_id": "1993-036AAW",
        "meta_epoch": "2025-12-09T22:55:05.298816",
        "meta_mean_motion": 14.38636981,
        "meta_eccentricity": 0.00501794,
        "meta_inclination": 74.003,
        "meta_ra_of_asc_node": 255.5114,
        "meta_arg_of_pericenter": 50.3621,
        "meta_mean_anomaly": 74.303,
        "meta_ephemeris_type": 0,
        "meta_classification_type": "U",
        "meta_norad_cat_id": 34793,
        "meta_element_set_no": 999,
        "meta_rev_at_epoch": 87290,
        "meta_bstar": 0.00040471329,
        "meta_mean_motion_dot": 1.232e-05,
        "meta_mean_motion_ddot": 0,
        "tle_line1": "1 34793U 93036AAW 25343.95492244  .00001232  00000+0  40471-3 0  9999",
        "tle_line2": "2 34793  74.0030 255.5114 0050179  50.3621  74.3030 14.38636981872906"
      },
      "geometry": {
        "type": "Point",
        "coordinates": [
          -114.73624219291187,
          -28.65265252825285
        ]
      }
    },
    {
      "type": "Feature",
      "properties": {
        "norad_id": 34796,
        "name": "COSMOS 2251 DEB",
        "group": "cosmos-2251-debris",
        "lat": -10.90213428768326,
        "lon": -142.8434803216008,
        "alt_km": 669.714325959837,
        "timestamp": "2025-12-10T14:53:37.483066+00:00",
        "meta_object_name": "COSMOS 2251 DEB",
        "meta_object_id": "1993-036AAZ",
        "meta_epoch": "2025-12-10T02:22:55.926624",
        "meta_mean_motion": 14.48668134,
        "meta_eccentricity": 0.01002111,
        "meta_inclination": 74.0294,
        "meta_ra_of_asc_node": 221.2955,
        "meta_arg_of_pericenter": 323.9503,
        "meta_mean_anomaly": 186.6627,
        "meta_ephemeris_type": 0,
        "meta_classification_type": "U",
        "meta_norad_cat_id": 34796,
        "meta_element_set_no": 999,
        "meta_rev_at_epoch": 87989,
        "meta_bstar": 0.00086649883,
        "meta_mean_motion_dot": 3.449e-05,
        "meta_mean_motion_ddot": 0,
        "tle_line1": "1 34796U 93036AAZ 25344.09925841  .00003449  00000+0  86650-3 0  9993",
        "tle_line2": "2 34796  74.0294 221.2955 0100211 323.9503 186.6627 14.48668134879895"
      },
      "geometry": {
        "type": "Point",
        "coordinates": [
          -142.8434803216008,
          -10.90213428768326
        ]
      }
    },
    {
      "type": "Feature",
      "properties": {
        "norad_id": 34797,
        "name": "COSMOS 2251 DEB",
        "group": "cosmos-2251-debris",
        "lat": 23.40290848357635,
        "lon": -83.2100889792421,
        "alt_km": 724.2082586876995,
        "timestamp": "2025-12-10T14:53:37.483075+00:00",
        "meta_object_name": "COSMOS 2251 DEB",
        "meta_object_id": "1993-036ABA",
        "meta_epoch": "2025-12-08T02:15:30.483648",
        "meta_mean_motion": 14.42690241,
        "meta_eccentricity": 0.00721111,
        "meta_inclination": 73.9779,
        "meta_ra_of_asc_node": 108.638,
        "meta_arg_of_pericenter": 222.8023,
        "meta_mean_anomaly": 136.7506,
        "meta_ephemeris_type": 0,
        "meta_classification_type": "U",
        "meta_norad_cat_id": 34797,
        "meta_element_set_no": 999,
        "meta_rev_at_epoch": 87348,
        "meta_bstar": 0.0033221371,
        "meta_mean_motion_dot": 0.00011397,
        "meta_mean_motion_ddot": 0,
        "tle_line1": "1 34797U 93036ABA 25342.09410282  .00011397  00000+0  33221-2 0  9996",
        "tle_line2": "2 34797  73.9779 108.6380 0072111 222.8023 136.7506 14.42690241873482"
      },
      "geometry": {
        "type": "Point",
        "coordinates": [
          -83.2100889792421,
          23.40290848357635
        ]
      }
    }
  ]
}